start=new Date('2022-05-04T00:00:00.000Z').valueOf();
sats=[{"TIME_SYSTEM":"UTC","RCS_SIZE":"LARGE","ARG_OF_PERICENTER":"52.5734","CLASSIFICATION_TYPE":"U","MEAN_MOTION_DDOT":"0.0000000000000","COUNTRY_CODE":"US","ECCENTRICITY":"0.00013560","EPHEMERIS_TYPE":"0","SITE":"AFETR","SEMIMAJOR_AXIS":"6727.832","ELEMENT_SET_NO":"999","MEAN_MOTION_DOT":"-0.00008623","REV_AT_EPOCH":"258","APOAPSIS":"350.610","MEAN_ELEMENT_THEORY":"SGP4","CENTER_NAME":"EARTH","TLE_LINE2":"2 52272  53.2147 314.2870 0001356  52.5734  62.6094 15.73222040  2586","RA_OF_ASC_NODE":"314.2870","TLE_LINE1":"1 52272U 22041M   22123.91667824 -.00008623  00000-0 -57026-4 0  9995","BSTAR":"-0.00005702600000","OBJECT_ID":"2022-041M","MEAN_MOTION":"15.73222040","PERIOD":"91.532","MEAN_ANOMALY":"62.6094","REF_FRAME":"TEME","EPOCH":"2022-05-03T22:00:00.999936","PERIAPSIS":"348.785","LAUNCH_DATE":"2022-04-21","OBJECT_NAME":"STARLINK-3781","GP_ID":"202637850","NORAD_CAT_ID":"52272","DECAY_DATE":null,"FILE":"3427573","INCLINATION":"53.2147","OBJECT_TYPE":"PAYLOAD"},{"APOAPSIS":"350.455","MEAN_ELEMENT_THEORY":"SGP4","RA_OF_ASC_NODE":"314.2911","TLE_LINE2":"2 52273  53.2146 314.2911 0001123  46.7239  66.6769 15.73221220  2581","CENTER_NAME":"EARTH","REV_AT_EPOCH":"258","MEAN_MOTION_DOT":"0.00010062","ELEMENT_SET_NO":"999","SEMIMAJOR_AXIS":"6727.835","ECCENTRICITY":"0.00011230","SITE":"AFETR","EPHEMERIS_TYPE":"0","CLASSIFICATION_TYPE":"U","MEAN_MOTION_DDOT":"0.0000000000000","COUNTRY_CODE":"US","RCS_SIZE":"LARGE","TIME_SYSTEM":"UTC","ARG_OF_PERICENTER":"46.7239","DECAY_DATE":null,"OBJECT_TYPE":"PAYLOAD","FILE":"3427573","INCLINATION":"53.2146","GP_ID":"202637693","NORAD_CAT_ID":"52273","OBJECT_NAME":"STARLINK-3782","LAUNCH_DATE":"2022-04-21","PERIAPSIS":"348.944","MEAN_ANOMALY":"66.6769","EPOCH":"2022-05-03T22:00:00.999936","REF_FRAME":"TEME","MEAN_MOTION":"15.73221220","PERIOD":"91.532","BSTAR":"0.00007595300000","OBJECT_ID":"2022-041N","TLE_LINE1":"1 52273U 22041N   22123.91667824  .00010062  00000-0  75953-4 0  9993"},{"EPOCH":"2022-05-03T22:00:00.999936","REF_FRAME":"TEME","MEAN_ANOMALY":"69.6352","PERIAPSIS":"348.916","LAUNCH_DATE":"2022-04-21","OBJECT_NAME":"STARLINK-3790","GP_ID":"202637773","NORAD_CAT_ID":"52274","DECAY_DATE":null,"FILE":"3427573","INCLINATION":"53.2145","OBJECT_TYPE":"PAYLOAD","TLE_LINE1":"1 52274U 22041P   22123.91667824  .00056576  00000-0  40465-3 0  9993","BSTAR":"0.00040465000000","OBJECT_ID":"2022-041P","MEAN_MOTION":"15.73209431","PERIOD":"91.533","SEMIMAJOR_AXIS":"6727.868","MEAN_MOTION_DOT":"0.00056576","ELEMENT_SET_NO":"999","REV_AT_EPOCH":"258","APOAPSIS":"350.551","MEAN_ELEMENT_THEORY":"SGP4","CENTER_NAME":"EARTH","TLE_LINE2":"2 52274  53.2145 314.2829 0001215  47.3228  69.6352 15.73209431  2587","RA_OF_ASC_NODE":"314.2829","TIME_SYSTEM":"UTC","RCS_SIZE":"LARGE","ARG_OF_PERICENTER":"47.3228","CLASSIFICATION_TYPE":"U","MEAN_MOTION_DDOT":"0.0000000000000","COUNTRY_CODE":"US","ECCENTRICITY":"0.00012150","SITE":"AFETR","EPHEMERIS_TYPE":"0"},{"REV_AT_EPOCH":"258","CENTER_NAME":"EARTH","TLE_LINE2":"2 52275  53.2146 314.2886 0001266  49.9785  64.6237 15.73233503  2588","RA_OF_ASC_NODE":"314.2886","APOAPSIS":"350.516","MEAN_ELEMENT_THEORY":"SGP4","SEMIMAJOR_AXIS":"6727.800","ELEMENT_SET_NO":"999","MEAN_MOTION_DOT":"-0.00013088","COUNTRY_CODE":"US","MEAN_MOTION_DDOT":"0.0000000000000","CLASSIFICATION_TYPE":"U","SITE":"AFETR","EPHEMERIS_TYPE":"0","ECCENTRICITY":"0.00012660","ARG_OF_PERICENTER":"49.9785","TIME_SYSTEM":"UTC","RCS_SIZE":"LARGE","LAUNCH_DATE":"2022-04-21","PERIAPSIS":"348.813","NORAD_CAT_ID":"52275","GP_ID":"202637294","OBJECT_NAME":"STARLINK-3784","INCLINATION":"53.2146","FILE":"3427573","OBJECT_TYPE":"PAYLOAD","DECAY_DATE":null,"EPOCH":"2022-05-03T22:00:00.999936","REF_FRAME":"TEME","MEAN_ANOMALY":"64.6237","PERIOD":"91.531","MEAN_MOTION":"15.73233503","TLE_LINE1":"1 52275U 22041Q   22123.91667824 -.00013088  00000-0 -88853-4 0  9991","BSTAR":"-0.00008885300000","OBJECT_ID":"2022-041Q"},{"MEAN_MOTION_DOT":"0.00030517","ELEMENT_SET_NO":"999","SEMIMAJOR_AXIS":"6727.877","APOAPSIS":"350.663","MEAN_ELEMENT_THEORY":"SGP4","CENTER_NAME":"EARTH","TLE_LINE2":"2 52276  53.2147 314.2804 0001370  49.4951  68.6534 15.73206500  2587","RA_OF_ASC_NODE":"314.2804","REV_AT_EPOCH":"258","TIME_SYSTEM":"UTC","RCS_SIZE":"LARGE","ARG_OF_PERICENTER":"49.4951","ECCENTRICITY":"0.00013700","SITE":"AFETR","EPHEMERIS_TYPE":"0","CLASSIFICATION_TYPE":"U","COUNTRY_CODE":"US","MEAN_MOTION_DDOT":"0.0000000000000","REF_FRAME":"TEME","EPOCH":"2022-05-03T22:00:00.999936","MEAN_ANOMALY":"68.6534","DECAY_DATE":null,"FILE":"3427573","INCLINATION":"53.2147","OBJECT_TYPE":"PAYLOAD","PERIAPSIS":"348.820","LAUNCH_DATE":"2022-04-21","GP_ID":"202637531","NORAD_CAT_ID":"52276","OBJECT_NAME":"STARLINK-3778","BSTAR":"0.00022100000000","OBJECT_ID":"2022-041R","TLE_LINE1":"1 52276U 22041R   22123.91667824  .00030517  00000-0  22100-3 0  9998","MEAN_MOTION":"15.73206500","PERIOD":"91.533"},{"MEAN_MOTION_DOT":"-0.00018751","ELEMENT_SET_NO":"999","SEMIMAJOR_AXIS":"6727.822","MEAN_ELEMENT_THEORY":"SGP4","APOAPSIS":"350.517","RA_OF_ASC_NODE":"314.2862","CENTER_NAME":"EARTH","TLE_LINE2":"2 52277  53.2147 314.2862 0001234  46.0672  69.7420 15.73225824  2580","REV_AT_EPOCH":"258","RCS_SIZE":"LARGE","TIME_SYSTEM":"UTC","ARG_OF_PERICENTER":"46.0672","ECCENTRICITY":"0.00012340","SITE":"AFETR","EPHEMERIS_TYPE":"0","CLASSIFICATION_TYPE":"U","COUNTRY_CODE":"US","MEAN_MOTION_DDOT":"0.0000000000000","REF_FRAME":"TEME","EPOCH":"2022-05-03T22:00:00.999936","MEAN_ANOMALY":"69.7420","DECAY_DATE":null,"OBJECT_TYPE":"PAYLOAD","FILE":"3427573","INCLINATION":"53.2147","OBJECT_NAME":"STARLINK-3787","GP_ID":"202637374","NORAD_CAT_ID":"52277","LAUNCH_DATE":"2022-04-21","PERIAPSIS":"348.856","BSTAR":"-0.00012934000000","OBJECT_ID":"2022-041S","TLE_LINE1":"1 52277U 22041S   22123.91667824 -.00018751  00000-0 -12934-3 0  9991","MEAN_MOTION":"15.73225824","PERIOD":"91.532"},{"EPOCH":"2022-05-03T22:00:00.999936","REF_FRAME":"TEME","MEAN_ANOMALY":"72.4742","PERIAPSIS":"348.876","LAUNCH_DATE":"2022-04-21","GP_ID":"202637454","NORAD_CAT_ID":"52278","OBJECT_NAME":"STARLINK-3780","FILE":"3427573","INCLINATION":"53.2146","OBJECT_TYPE":"PAYLOAD","DECAY_DATE":null,"TLE_LINE1":"1 52278U 22041T   22123.91667824  .00093584  00000-0  66492-3 0  9995","OBJECT_ID":"2022-041T","BSTAR":"0.00066492000000","PERIOD":"91.535","MEAN_MOTION":"15.73160567","SEMIMAJOR_AXIS":"6728.008","ELEMENT_SET_NO":"999","MEAN_MOTION_DOT":"0.00093584","REV_AT_EPOCH":"258","CENTER_NAME":"EARTH","TLE_LINE2":"2 52278  53.2146 314.2790 0001482  46.3031  72.4742 15.73160567  2587","RA_OF_ASC_NODE":"314.2790","APOAPSIS":"350.870","MEAN_ELEMENT_THEORY":"SGP4","ARG_OF_PERICENTER":"46.3031","TIME_SYSTEM":"UTC","RCS_SIZE":"LARGE","COUNTRY_CODE":"US","MEAN_MOTION_DDOT":"0.0000000000000","CLASSIFICATION_TYPE":"U","SITE":"AFETR","EPHEMERIS_TYPE":"0","ECCENTRICITY":"0.00014820"},{"ARG_OF_PERICENTER":"49.7094","TIME_SYSTEM":"UTC","RCS_SIZE":"LARGE","SITE":"AFETR","EPHEMERIS_TYPE":"0","ECCENTRICITY":"0.00014800","MEAN_MOTION_DDOT":"0.0000000000000","COUNTRY_CODE":"US","CLASSIFICATION_TYPE":"U","ELEMENT_SET_NO":"999","MEAN_MOTION_DOT":"-0.00018141","SEMIMAJOR_AXIS":"6727.667","TLE_LINE2":"2 52279  53.2145 314.2846 0001480  49.7094  66.5409 15.73280066  2584","CENTER_NAME":"EARTH","RA_OF_ASC_NODE":"314.2846","MEAN_ELEMENT_THEORY":"SGP4","APOAPSIS":"350.528","REV_AT_EPOCH":"258","OBJECT_ID":"2022-041U","BSTAR":"-0.00012468000000","TLE_LINE1":"1 52279U 22041U   22123.91667824 -.00018141  00000-0 -12468-3 0  9998","PERIOD":"91.529","MEAN_MOTION":"15.73280066","MEAN_ANOMALY":"66.5409","REF_FRAME":"TEME","EPOCH":"2022-05-03T22:00:00.999936","INCLINATION":"53.2145","FILE":"3427573","OBJECT_TYPE":"PAYLOAD","DECAY_DATE":null,"PERIAPSIS":"348.536","LAUNCH_DATE":"2022-04-21","OBJECT_NAME":"STARLINK-3686","GP_ID":"202637614","NORAD_CAT_ID":"52279"},{"MEAN_ANOMALY":"76.8693","REF_FRAME":"TEME","EPOCH":"2022-05-03T22:00:00.999936","OBJECT_TYPE":"PAYLOAD","FILE":"3427573","INCLINATION":"53.2148","DECAY_DATE":null,"NORAD_CAT_ID":"52280","GP_ID":"202637851","OBJECT_NAME":"STARLINK-3764","LAUNCH_DATE":"2022-04-21","PERIAPSIS":"348.897","OBJECT_ID":"2022-041V","BSTAR":"0.00011974000000","TLE_LINE1":"1 52280U 22041V   22123.91667824  .00016219  00000-0  11974-3 0  9993","PERIOD":"91.533","MEAN_MOTION":"15.73202658","ELEMENT_SET_NO":"999","MEAN_MOTION_DOT":"0.00016219","SEMIMAJOR_AXIS":"6727.888","RA_OF_ASC_NODE":"314.2746","CENTER_NAME":"EARTH","TLE_LINE2":"2 52280  53.2148 314.2746 0001271  43.6805  76.8693 15.73202658  2589","APOAPSIS":"350.608","MEAN_ELEMENT_THEORY":"SGP4","REV_AT_EPOCH":"258","ARG_OF_PERICENTER":"43.6805","RCS_SIZE":"LARGE","TIME_SYSTEM":"UTC","SITE":"AFETR","EPHEMERIS_TYPE":"0","ECCENTRICITY":"0.00012710","COUNTRY_CODE":"US","MEAN_MOTION_DDOT":"0.0000000000000","CLASSIFICATION_TYPE":"U"},{"GP_ID":"202637694","OBJECT_NAME":"STARLINK-3779","NORAD_CAT_ID":"52281","PERIAPSIS":"348.840","LAUNCH_DATE":"2022-04-21","DECAY_DATE":null,"OBJECT_TYPE":"PAYLOAD","FILE":"3427573","INCLINATION":"53.2145","REF_FRAME":"TEME","EPOCH":"2022-05-03T22:00:00.999936","MEAN_ANOMALY":"70.9508","MEAN_MOTION":"15.73228930","PERIOD":"91.531","TLE_LINE1":"1 52281U 22041W   22123.91667824 -.00017716  00000-0 -12192-3 0  9992","OBJECT_ID":"2022-041W","BSTAR":"-0.00012192000000","REV_AT_EPOCH":"258","APOAPSIS":"350.515","MEAN_ELEMENT_THEORY":"SGP4","RA_OF_ASC_NODE":"314.2822","TLE_LINE2":"2 52281  53.2145 314.2822 0001245  46.6029  70.9508 15.73228930  2585","CENTER_NAME":"EARTH","SEMIMAJOR_AXIS":"6727.813","MEAN_MOTION_DOT":"-0.00017716","ELEMENT_SET_NO":"999","CLASSIFICATION_TYPE":"U","COUNTRY_CODE":"US","MEAN_MOTION_DDOT":"0.0000000000000","ECCENTRICITY":"0.00012450","EPHEMERIS_TYPE":"0","SITE":"AFETR","RCS_SIZE":"LARGE","TIME_SYSTEM":"UTC","ARG_OF_PERICENTER":"46.6029"}];
